STARLINK-36237          
1 68337U 26059S   26153.69226071  .00044033  00000+0  12414-2 0  9996
2 68337  53.1601 308.8895 0001646 302.4182  57.6662 15.36011178 11257
STARLINK-36254          
1 68338U 26059T   26157.00003472  .00001772  00000+0  63525-4 0  9998
2 68338  53.1585 293.2526 0001403  67.1107 302.5598 15.34417170  5949
STARLINK-37200          
1 68339U 26059U   26156.68527871  .00028312  00000+0  96398-3 0  9998
2 68339  53.1587 299.1383 0001833  97.3511 262.7698 15.30213847 11653
STARLINK-37185          
1 68340U 26059V   26156.11807890  .00035981  00000+0  10372-2 0  9997
2 68340  53.1608 297.7258 0000972  70.0509 290.0598 15.35409699 11629
STARLINK-37181          
1 68341U 26059W   26156.12637495  .00038576  00000+0  11469-2 0  9992
2 68341  53.1610 297.7762 0001221  84.8880 275.2262 15.34402958 11629
STARLINK-37192          
1 68342U 26059X   26156.11279156  .00021491  00000+0  62490-3 0  9997
2 68342  53.1604 297.7123 0000582  95.2881 264.8188 15.35417140 11621
STARLINK-37158          
1 68343U 26059Y   26156.66850831  .00056632  00000+0  16730-2 0  9993
2 68343  53.1599 295.4737 0001416  82.9498 277.1666 15.34430940 11704
STARLINK-36380          
1 68344U 26059Z   26156.12301093  .00031347  00000+0  10937-2 0  9995
2 68344  53.1594 302.7500 0001005  95.9906 264.1209 15.29366451 11553
STARLINK-37214          
1 68345U 26059AA  26156.67051383  .00048755  00000+0  14410-2 0  9991
2 68345  53.1591 294.7720 0001260 106.9206 253.1935 15.34482023 11716
STARLINK-37169          
1 68346U 26059AB  26157.11602731  .00034881  00000+0  10374-2 0  9991
2 68346  53.1610 293.2948 0000725  37.9420 322.1633 15.34438722 11776
STARLINK-37136          
1 68347U 26059AC  26157.08243737  .00041463  00000+0  14030-2 0  9992
2 68347  53.1568 297.3471 0000559  23.7871 336.3155 15.30229049 11719
STARLINK-37182          
1 68348U 26059AD  26156.90378265  .00014236  00000+0  43131-3 0  9991
2 68348  53.1605 294.0980 0001737  42.7383 317.3755 15.34426830 11748
STARLINK-37183          
1 68349U 26059AE  26156.81800013  .00028925  00000+0  98326-3 0  9999
2 68349  53.1583 298.5396 0001012  56.1491 303.9606 15.30254509 11675
STARLINK-36296          
1 68380U 26063A   26157.25002315 -.01166600  00000+0 -12128-1 0  9997
2 68380  97.2851 301.7135 0001529  48.4696 265.7281 15.67088088  5965
STARLINK-37111          
1 68381U 26063B   26157.11976947  .00028540  00000+0  88273-3 0  9997
2 68381  97.2869 299.4584 0000908  97.4908 262.6438 15.33455193 11444
STARLINK-36946          
1 68382U 26063C   26157.14695337  .00037959  00000+0  11719-2 0  9996
2 68382  97.2851 299.5749 0001371  93.1893 266.9506 15.33454401 11456
STARLINK-37121          
1 68383U 26063D   26156.86418258  .00036586  00000+0  11294-2 0  9993
2 68383  97.2884 299.1959 0000552 246.7955 113.3230 15.33465367 11404
STARLINK-37137          
1 68384U 26063E   26157.14424039  .00020293  00000+0  62894-3 0  9991
2 68384  97.2878 299.5781 0000426  71.2423 288.8866 15.33460253 11453
STARLINK-37128          
1 68385U 26063F   26156.84243833  .00036270  00000+0  11200-2 0  9995
2 68385  97.2869 299.2177 0000781  84.2680 275.8652 15.33456746 11409
STARLINK-37198          
1 68386U 26063G   26157.13066488  .00028614  00000+0  88633-3 0  9996
2 68386  97.2830 299.5939 0000930 110.9000 249.2343 15.33407860 11456
STARLINK-37223          
1 68387U 26063H   26156.83971860  .00029415  00000+0  90974-3 0  9993
2 68387  97.2872 299.2209 0000856  91.9151 268.2190 15.33451379 11402
STARLINK-37203          
1 68388U 26063J   26157.14967763  .00041815  00000+0  12895-2 0  9999
2 68388  97.2854 299.5681 0000810 105.4543 254.6790 15.33467519 11459
STARLINK-37197          
1 68389U 26063K   26157.13880040  .00061067  00000+0  18781-2 0  9992
2 68389  97.2853 299.5814 0000547  97.6393 262.4912 15.33455206 11452
STARLINK-37193          
1 68390U 26063L   26157.25002315 -.02438248  00000+0 -25055-1 0  9992
2 68390  97.2852 302.0119 0001575  73.8246 225.9097 15.68112137  5964
STARLINK-37216          
1 68391U 26063M   26157.11161247  .00032145  00000+0  99327-3 0  9995
2 68391  97.2857 299.4700 0000694  91.3793 268.7529 15.33461549 11449
STARLINK-37215          
1 68392U 26063N   26156.84515189  .00035650  00000+0  11008-2 0  9996
2 68392  97.2882 299.2163 0000720 207.2896 152.8309 15.33463502 11407
STARLINK-37184          
1 68393U 26063P   26157.00003472 -.00007489  00000+0 -22977-3 0  9992
2 68393  97.2861 299.4063 0001271  91.2347 133.3164 15.33460168  5838
STARLINK-37157          
1 68394U 26063Q   26157.13336455  .00036972  00000+0  11414-2 0  9997
2 68394  97.2857 299.5940 0000959  98.0975 262.0376 15.33458835 11451
STARLINK-37172          
1 68395U 26063R   26157.12248666  .00034769  00000+0  10738-2 0  9993
2 68395  97.2864 299.4568 0000639 127.4596 232.6705 15.33462586 11442
STARLINK-37190          
1 68396U 26063S   26157.14154158  .00050671  00000+0  15612-2 0  9994
2 68396  97.2863 299.5814 0001183  77.4895 282.6480 15.33449217 11450
