OBJECT_NAME,OBJECT_ID,EPOCH,MEAN_MOTION,ECCENTRICITY,INCLINATION,RA_OF_ASC_NODE,ARG_OF_PERICENTER,MEAN_ANOMALY,EPHEMERIS_TYPE,CLASSIFICATION_TYPE,NORAD_CAT_ID,ELEMENT_SET_NO,REV_AT_EPOCH,BSTAR,MEAN_MOTION_DOT,MEAN_MOTION_DDOT
STARLINK-36237,2026-059S,2026-06-02T16:36:51.325344,15.36011178,.0001646,53.1601,308.8895,302.4182,57.6662,0,U,68337,999,1125,.12413849E-2,.44033E-3,0
STARLINK-36254,2026-059T,2026-06-06T00:00:02.999808,15.34417170,.00014035,53.1585,293.2526,67.1107,302.5598,0,U,68338,999,594,.63524921E-4,.1772E-4,0
STARLINK-37200,2026-059U,2026-06-05T16:26:48.080544,15.30213847,.00018339,53.1587,299.1383,97.3511,262.7698,0,U,68339,999,1165,.96397649E-3,.28312E-3,0
STARLINK-37185,2026-059V,2026-06-05T02:50:02.016960,15.35409699,.00009726,53.1608,297.7258,70.0509,290.0598,0,U,68340,999,1162,.10371627E-2,.35981E-3,0
STARLINK-37181,2026-059W,2026-06-05T03:01:58.795680,15.34402958,.00012218,53.1610,297.7762,84.8880,275.2262,0,U,68341,999,1162,.1146877E-2,.38576E-3,0
STARLINK-37192,2026-059X,2026-06-05T02:42:25.190784,15.35417140,.00005826,53.1604,297.7123,95.2881,264.8188,0,U,68342,999,1162,.62489933E-3,.21491E-3,0
STARLINK-37158,2026-059Y,2026-06-05T16:02:39.117984,15.34430940,.00014165,53.1599,295.4737,82.9498,277.1666,0,U,68343,999,1170,.16729835E-2,.56632E-3,0
STARLINK-36380,2026-059Z,2026-06-05T02:57:08.144352,15.29366451,.00010053,53.1594,302.7500,95.9906,264.1209,0,U,68344,999,1155,.10937005E-2,.31347E-3,0
STARLINK-37214,2026-059AA,2026-06-05T16:05:32.394912,15.34482023,.00012604,53.1591,294.7720,106.9206,253.1935,0,U,68345,999,1171,.14410077E-2,.48755E-3,0
STARLINK-37169,2026-059AB,2026-06-06T02:47:04.759584,15.34438722,.00007253,53.1610,293.2948,37.9420,322.1633,0,U,68346,999,1177,.10374286E-2,.34881E-3,0
STARLINK-37136,2026-059AC,2026-06-06T01:58:42.588768,15.30229049,.00005599,53.1568,297.3471,23.7871,336.3155,0,U,68347,999,1171,.1403004E-2,.41463E-3,0
STARLINK-37182,2026-059AD,2026-06-05T21:41:26.820960,15.34426830,.00017376,53.1605,294.0980,42.7383,317.3755,0,U,68348,999,1174,.43131282E-3,.14236E-3,0
STARLINK-37183,2026-059AE,2026-06-05T19:37:55.211232,15.30254509,.00010129,53.1583,298.5396,56.1491,303.9606,0,U,68349,999,1167,.98326269E-3,.28925E-3,0
STARLINK-36296,2026-063A,2026-06-06T06:00:02.000160,15.67088088,.00015291,97.2851,301.7135,48.4696,265.7281,0,U,68380,999,596,-.12128397E-1,-.11666E-1,0
STARLINK-37111,2026-063B,2026-06-06T02:52:28.082208,15.33455193,.00009088,97.2869,299.4584,97.4908,262.6438,0,U,68381,999,1144,.88272949E-3,.2854E-3,0
STARLINK-36946,2026-063C,2026-06-06T03:31:36.771168,15.33454401,.00013714,97.2851,299.5749,93.1893,266.9506,0,U,68382,999,1145,.11718508E-2,.37959E-3,0
STARLINK-37121,2026-063D,2026-06-05T20:44:25.374912,15.33465367,.00005522,97.2884,299.1959,246.7955,113.3230,0,U,68383,999,1140,.11293992E-2,.36586E-3,0
STARLINK-37137,2026-063E,2026-06-06T03:27:42.369696,15.33460253,.00004266,97.2878,299.5781,71.2423,288.8866,0,U,68384,999,1145,.62893744E-3,.20293E-3,0
STARLINK-37128,2026-063F,2026-06-05T20:13:06.671712,15.33456746,.00007819,97.2869,299.2177,84.2680,275.8652,0,U,68385,999,1140,.11199942E-2,.3627E-3,0
STARLINK-37198,2026-063G,2026-06-06T03:08:09.445632,15.33407860,.00009301,97.2830,299.5939,110.9000,249.2343,0,U,68386,999,1145,.88632971E-3,.28614E-3,0
STARLINK-37223,2026-063H,2026-06-05T20:09:11.687040,15.33451379,.0000856,97.2872,299.2209,91.9151,268.2190,0,U,68387,999,1140,.90974183E-3,.29415E-3,0
STARLINK-37203,2026-063J,2026-06-06T03:35:32.147232,15.33467519,.00008103,97.2854,299.5681,105.4543,254.6790,0,U,68388,999,1145,.1289508E-2,.41815E-3,0
STARLINK-37197,2026-063K,2026-06-06T03:19:52.354560,15.33455206,.00005477,97.2853,299.5814,97.6393,262.4912,0,U,68389,999,1145,.18780649E-2,.61067E-3,0
STARLINK-37193,2026-063L,2026-06-06T06:00:02.000160,15.68112137,.0001575,97.2852,302.0119,73.8246,225.9097,0,U,68390,999,596,-.25054861E-1,-.2438248E-1,0
STARLINK-37216,2026-063M,2026-06-06T02:40:43.317408,15.33461549,.00006946,97.2857,299.4700,91.3793,268.7529,0,U,68391,999,1144,.9932725E-3,.32145E-3,0
STARLINK-37215,2026-063N,2026-06-05T20:17:01.123296,15.33463502,.00007208,97.2882,299.2163,207.2896,152.8309,0,U,68392,999,1140,.11007669E-2,.3565E-3,0
STARLINK-37184,2026-063P,2026-06-06T00:00:02.999808,15.33460168,.00012711,97.2861,299.4063,91.2347,133.3164,0,U,68393,999,583,-.22977404E-3,-.7489E-4,0
STARLINK-37157,2026-063Q,2026-06-06T03:12:02.697120,15.33458835,.00009599,97.2857,299.5940,98.0975,262.0376,0,U,68394,999,1145,.1141446E-2,.36972E-3,0
STARLINK-37172,2026-063R,2026-06-06T02:56:22.847424,15.33462586,.00006397,97.2864,299.4568,127.4596,232.6705,0,U,68395,999,1144,.10737831E-2,.34769E-3,0
STARLINK-37190,2026-063S,2026-06-06T03:23:49.192512,15.33449217,.00011837,97.2863,299.5814,77.4895,282.6480,0,U,68396,999,1145,.15611619E-2,.50671E-3,0
